ONEWEB-0375             
1 49301U 21090Y   25295.14784398 -.00000075  00000+0 -21685-3 0  9994
2 49301  87.9201 321.9110 0001570  76.9854 283.1455 13.20769700199108
ONEWEB-0376             
1 49302U 21090Z   25295.19937520  .00000026  00000+0  31811-4 0  9994
2 49302  87.9259 352.2967 0001951 106.0095 254.1253 13.19724511195068
ONEWEB-0377             
1 49303U 21090AA  25295.13378463  .00000040  00000+0  67042-4 0  9995
2 49303  87.9207 321.9107 0001993  88.9958 271.1404 13.20771075199096
ONEWEB-0378             
1 49304U 21090AB  25295.15587834  .00000045  00000+0  79521-4 0  9992
2 49304  87.9209 321.9216 0001740  91.5705 268.5628 13.20771293198369
ONEWEB-0379             
1 49305U 21090AC  25295.16976580  .00000001  00000+0 -32466-4 0  9994
2 49305  87.9025 337.1206 0001743  99.3030 260.8297 13.14504488196294
ONEWEB-0380             
1 49306U 21090AD  25295.19621748  .00000049  00000+0  88985-4 0  9999
2 49306  87.9254 352.3229 0001818  92.3813 267.7528 13.19724632195032
ONEWEB-0381             
1 49307U 21090AE  25295.13049188  .00000036  00000+0  55532-4 0  9994
2 49307  87.9200 321.9177 0001734  87.1140 273.0192 13.20770937198402
ONEWEB-0382             
1 49308U 21090AF  25295.11785970  .00000049  00000+0  87463-4 0  9991
2 49308  87.9208 321.9121 0001584  90.0018 270.1297 13.20770120198396
ONEWEB-0383             
1 49309U 21090AG  25295.16344267 -.00000131  00000+0 -38781-3 0  9999
2 49309  87.9029 337.1046 0001674  98.6835 261.4485 13.14503546196326
ONEWEB-0384             
1 49310U 21090AH  25295.11227821  .00000039  00000+0  64421-4 0  9998
2 49310  87.9218 321.9443 0001309  91.1831 268.9452 13.20795811198401
ONEWEB-0385             
1 49311U 21090AJ  25295.10997656  .00000024  00000+0  26977-4 0  9996
2 49311  87.9197 321.9234 0001721  92.3178 267.8153 13.20771450198376
ONEWEB-0386             
1 49312U 21090AK  25295.12732993  .00000049  00000+0  89586-4 0  9992
2 49312  87.9210 321.8994 0001591  92.2434 267.8882 13.20770978198399
ONEWEB-0387             
1 49313U 21090AL  25295.11154147  .00000040  00000+0  65924-4 0  9992
2 49313  87.9199 321.9525 0001853  84.4026 275.7319 13.20769600198391
ONEWEB-0388             
1 49314U 21090AM  25295.19147750  .00000070  00000+0  14378-3 0  9992
2 49314  87.9245 352.3289 0001738  97.5761 262.5569 13.19724466195029
ONEWEB-0389             
1 50469U 21132A   25294.83508658  .00000019  00000+0  16863-4 0  9995
2 50469  87.9116  53.2666 0001504  88.0367 272.0937 13.17648585186696
ONEWEB-0390             
1 50470U 21132B   25294.83676565  .00000039  00000+0  66216-4 0  9999
2 50470  87.9110  53.2718 0001951  96.0399 264.0955 13.17647624186694
ONEWEB-0391             
1 50471U 21132C   25295.06627363  .00000027  00000+0  36813-4 0  9995
2 50471  87.9106  53.2369 0001746  70.6721 289.4599 13.17648433186729
